CBERS 4                 
1 40336U 14079A   20177.26503772 -.00000032  00000-0  40408-5 0  9993
2 40336  98.5613 248.8609 0001789  83.8316 276.3076 14.35414037290803
CZ-4B R/B               
1 40337U 14079B   20176.67948784  .00000077  00000-0  12925-4 0  9994
2 40337  98.4583  62.8875 0175452 285.4828  72.7073 14.89381614301457
